start=new Date('2023-06-17T00:00:00.000Z').valueOf();
sats=[{"LAUNCH_DATE":"2022-08-19","APOAPSIS":"540.416","PERIAPSIS":"539.089","MEAN_ELEMENT_THEORY":"SGP4","MEAN_ANOMALY":"278.2688","ECCENTRICITY":"0.00009590","FILE":"3934949","RCS_SIZE":"LARGE","NORAD_CAT_ID":"53545","REF_FRAME":"TEME","GP_ID":"234095203","ARG_OF_PERICENTER":"81.8413","REV_AT_EPOCH":"4650","TIME_SYSTEM":"UTC","OBJECT_NAME":"STARLINK-4475","TLE_LINE2":"2 53545  53.2150 219.0969 0000959  81.8413 278.2688 15.08837576 46500","MEAN_MOTION_DOT":"0.00000772","COUNTRY_CODE":"US","CLASSIFICATION_TYPE":"U","RA_OF_ASC_NODE":"219.0969","OBJECT_ID":"2022-101U","DECAY_DATE":null,"TLE_LINE1":"1 53545U 22101U   23167.85267005  .00000772  00000-0  66609-4 0  9997","SEMIMAJOR_AXIS":"6917.888","CENTER_NAME":"EARTH","ELEMENT_SET_NO":"999","SITE":"AFETR","MEAN_MOTION_DDOT":"0.0000000000000","OBJECT_TYPE":"PAYLOAD","INCLINATION":"53.2150","BSTAR":"0.00006660900000","PERIOD":"95.438","EPOCH":"2023-06-16T20:27:50.692320","EPHEMERIS_TYPE":"0","MEAN_MOTION":"15.08837576"},{"TLE_LINE2":"2 53546  53.2148 210.6899 0000958  87.0875 273.0227 15.08849271 45894","MEAN_MOTION_DOT":"0.00001934","TIME_SYSTEM":"UTC","OBJECT_NAME":"STARLINK-4477","ARG_OF_PERICENTER":"87.0875","REV_AT_EPOCH":"4589","RCS_SIZE":"LARGE","FILE":"3934686","NORAD_CAT_ID":"53546","GP_ID":"234062805","REF_FRAME":"TEME","APOAPSIS":"540.380","LAUNCH_DATE":"2022-08-19","PERIAPSIS":"539.054","MEAN_ANOMALY":"273.0227","MEAN_ELEMENT_THEORY":"SGP4","ECCENTRICITY":"0.00009580","BSTAR":"0.00013950000000","PERIOD":"95.437","OBJECT_TYPE":"PAYLOAD","INCLINATION":"53.2148","MEAN_MOTION":"15.08849271","EPHEMERIS_TYPE":"0","EPOCH":"2023-06-16T09:26:40.383744","DECAY_DATE":null,"ELEMENT_SET_NO":"999","CENTER_NAME":"EARTH","SITE":"AFETR","MEAN_MOTION_DDOT":"0.0000000000000","SEMIMAJOR_AXIS":"6917.852","TLE_LINE1":"1 53546U 22101V   23167.39352296  .00001934  00000-0  13950-3 0  9995","RA_OF_ASC_NODE":"210.6899","OBJECT_ID":"2022-101V","CLASSIFICATION_TYPE":"U","COUNTRY_CODE":"US"},{"RA_OF_ASC_NODE":"219.1302","OBJECT_ID":"2022-101W","COUNTRY_CODE":"US","CLASSIFICATION_TYPE":"U","INCLINATION":"53.2154","OBJECT_TYPE":"PAYLOAD","PERIOD":"95.438","BSTAR":"0.00020091000000","EPHEMERIS_TYPE":"0","EPOCH":"2023-06-16T20:17:14.542944","MEAN_MOTION":"15.08828575","DECAY_DATE":null,"SEMIMAJOR_AXIS":"6917.915","TLE_LINE1":"1 53547U 22101W   23167.84530721  .00002910  00000-0  20091-3 0  9996","MEAN_MOTION_DDOT":"0.0000000000000","SITE":"AFETR","ELEMENT_SET_NO":"999","CENTER_NAME":"EARTH","FILE":"3934949","RCS_SIZE":"LARGE","NORAD_CAT_ID":"53547","REF_FRAME":"TEME","GP_ID":"234096691","LAUNCH_DATE":"2022-08-19","APOAPSIS":"540.438","ECCENTRICITY":"0.00009500","PERIAPSIS":"539.123","MEAN_ANOMALY":"267.2230","MEAN_ELEMENT_THEORY":"SGP4","TLE_LINE2":"2 53547  53.2154 219.1302 0000950  92.8870 267.2230 15.08828575 46485","MEAN_MOTION_DOT":"0.00002910","REV_AT_EPOCH":"4648","ARG_OF_PERICENTER":"92.8870","OBJECT_NAME":"STARLINK-4474","TIME_SYSTEM":"UTC"},{"DECAY_DATE":null,"MEAN_MOTION_DDOT":"0.0000000000000","SITE":"AFETR","ELEMENT_SET_NO":"999","CENTER_NAME":"EARTH","SEMIMAJOR_AXIS":"6917.847","TLE_LINE1":"1 53548U 22101X   23167.43313986  .00002025  00000-0  14520-3 0  9991","PERIOD":"95.437","BSTAR":"0.00014520000000","INCLINATION":"53.2153","OBJECT_TYPE":"PAYLOAD","MEAN_MOTION":"15.08850803","EPOCH":"2023-06-16T10:23:43.283904","EPHEMERIS_TYPE":"0","CLASSIFICATION_TYPE":"U","COUNTRY_CODE":"US","RA_OF_ASC_NODE":"220.9796","OBJECT_ID":"2022-101X","OBJECT_NAME":"STARLINK-4513","TIME_SYSTEM":"UTC","REV_AT_EPOCH":"4575","ARG_OF_PERICENTER":"70.6727","TLE_LINE2":"2 53548  53.2153 220.9796 0000780  70.6727 289.4349 15.08850803 45753","MEAN_MOTION_DOT":"0.00002025","APOAPSIS":"540.252","LAUNCH_DATE":"2022-08-19","ECCENTRICITY":"0.00007800","PERIAPSIS":"539.173","MEAN_ANOMALY":"289.4349","MEAN_ELEMENT_THEORY":"SGP4","FILE":"3934686","RCS_SIZE":"LARGE","NORAD_CAT_ID":"53548","GP_ID":"234063810","REF_FRAME":"TEME"},{"APOAPSIS":"540.463","LAUNCH_DATE":"2022-08-19","ECCENTRICITY":"0.00010500","PERIAPSIS":"539.010","MEAN_ANOMALY":"269.7397","MEAN_ELEMENT_THEORY":"SGP4","NORAD_CAT_ID":"53549","FILE":"3934949","RCS_SIZE":"LARGE","GP_ID":"234095703","REF_FRAME":"TEME","OBJECT_NAME":"STARLINK-4516","TIME_SYSTEM":"UTC","REV_AT_EPOCH":"4647","ARG_OF_PERICENTER":"90.3716","TLE_LINE2":"2 53549  53.2149 219.1633 0001050  90.3716 269.7397 15.08842948 46472","MEAN_MOTION_DOT":"0.00001052","CLASSIFICATION_TYPE":"U","COUNTRY_CODE":"US","RA_OF_ASC_NODE":"219.1633","OBJECT_ID":"2022-101Y","DECAY_DATE":null,"SITE":"AFETR","MEAN_MOTION_DDOT":"0.0000000000000","ELEMENT_SET_NO":"999","CENTER_NAME":"EARTH","TLE_LINE1":"1 53549U 22101Y   23167.83794350  .00001052  00000-0  84179-4 0  9991","SEMIMAJOR_AXIS":"6917.871","PERIOD":"95.437","BSTAR":"0.00008417900000","INCLINATION":"53.2149","OBJECT_TYPE":"PAYLOAD","MEAN_MOTION":"15.08842948","EPHEMERIS_TYPE":"0","EPOCH":"2023-06-16T20:06:38.318400"},{"NORAD_CAT_ID":"53550","FILE":"3934686","RCS_SIZE":"LARGE","GP_ID":"234063305","REF_FRAME":"TEME","APOAPSIS":"540.457","LAUNCH_DATE":"2022-08-19","PERIAPSIS":"538.993","MEAN_ANOMALY":"268.0507","MEAN_ELEMENT_THEORY":"SGP4","ECCENTRICITY":"0.00010580","TLE_LINE2":"2 53550  53.2159 220.9960 0001058  92.0606 268.0507 15.08846733 46418","MEAN_MOTION_DOT":"0.00001086","TIME_SYSTEM":"UTC","OBJECT_NAME":"STARLINK-4518","ARG_OF_PERICENTER":"92.0606","REV_AT_EPOCH":"4641","RA_OF_ASC_NODE":"220.9960","OBJECT_ID":"2022-101Z","CLASSIFICATION_TYPE":"U","COUNTRY_CODE":"US","BSTAR":"0.00008629000000","PERIOD":"95.437","OBJECT_TYPE":"PAYLOAD","INCLINATION":"53.2159","MEAN_MOTION":"15.08846733","EPOCH":"2023-06-16T10:18:25.219584","EPHEMERIS_TYPE":"0","DECAY_DATE":null,"ELEMENT_SET_NO":"999","CENTER_NAME":"EARTH","SITE":"AFETR","MEAN_MOTION_DDOT":"0.0000000000000","TLE_LINE1":"1 53550U 22101Z   23167.42945856  .00001086  00000-0  86290-4 0  9990","SEMIMAJOR_AXIS":"6917.860"},{"TIME_SYSTEM":"UTC","OBJECT_NAME":"STARLINK-4514","ARG_OF_PERICENTER":"77.4721","REV_AT_EPOCH":"4647","TLE_LINE2":"2 53551  53.2154 219.1806 0000895  77.4721 282.6371 15.08839794 46472","MEAN_MOTION_DOT":"0.00000321","APOAPSIS":"540.365","LAUNCH_DATE":"2022-08-19","PERIAPSIS":"539.127","MEAN_ELEMENT_THEORY":"SGP4","MEAN_ANOMALY":"282.6371","ECCENTRICITY":"0.00008950","FILE":"3934949","NORAD_CAT_ID":"53551","RCS_SIZE":"LARGE","GP_ID":"234096192","REF_FRAME":"TEME","DECAY_DATE":null,"ELEMENT_SET_NO":"999","CENTER_NAME":"EARTH","MEAN_MOTION_DDOT":"0.0000000000000","SITE":"AFETR","SEMIMAJOR_AXIS":"6917.881","TLE_LINE1":"1 53551U 22101AA  23167.83426201  .00000321  00000-0  38271-4 0  9991","BSTAR":"0.00003827100000","PERIOD":"95.438","OBJECT_TYPE":"PAYLOAD","INCLINATION":"53.2154","MEAN_MOTION":"15.08839794","EPHEMERIS_TYPE":"0","EPOCH":"2023-06-16T20:01:20.237664","CLASSIFICATION_TYPE":"U","COUNTRY_CODE":"US","RA_OF_ASC_NODE":"219.1806","OBJECT_ID":"2022-101AA"},{"DECAY_DATE":null,"SITE":"AFETR","MEAN_MOTION_DDOT":"0.0000000000000","ELEMENT_SET_NO":"999","CENTER_NAME":"EARTH","SEMIMAJOR_AXIS":"6917.854","TLE_LINE1":"1 53552U 22101AB  23167.42209837  .00001634  00000-0  12070-3 0  9997","PERIOD":"95.437","BSTAR":"0.00012070000000","INCLINATION":"53.2162","OBJECT_TYPE":"PAYLOAD","MEAN_MOTION":"15.08848752","EPHEMERIS_TYPE":"0","EPOCH":"2023-06-16T10:07:49.299168","CLASSIFICATION_TYPE":"U","COUNTRY_CODE":"US","RA_OF_ASC_NODE":"221.0291","OBJECT_ID":"2022-101AB","OBJECT_NAME":"STARLINK-4495","TIME_SYSTEM":"UTC","REV_AT_EPOCH":"4640","ARG_OF_PERICENTER":"89.3349","TLE_LINE2":"2 53552  53.2162 221.0291 0000978  89.3349 270.7756 15.08848752 46404","MEAN_MOTION_DOT":"0.00001634","APOAPSIS":"540.395","LAUNCH_DATE":"2022-08-19","ECCENTRICITY":"0.00009780","MEAN_ELEMENT_THEORY":"SGP4","PERIAPSIS":"539.042","MEAN_ANOMALY":"270.7756","FILE":"3934686","NORAD_CAT_ID":"53552","RCS_SIZE":"LARGE","GP_ID":"234064310","REF_FRAME":"TEME"},{"DECAY_DATE":null,"MEAN_MOTION_DDOT":"0.0000000000000","SITE":"AFETR","ELEMENT_SET_NO":"999","CENTER_NAME":"EARTH","SEMIMAJOR_AXIS":"6917.851","TLE_LINE1":"1 53553U 22101AC  23167.41472433  .00001639  00000-0  12101-3 0  9991","PERIOD":"95.437","BSTAR":"0.00012101000000","INCLINATION":"53.2158","OBJECT_TYPE":"PAYLOAD","MEAN_MOTION":"15.08849720","EPOCH":"2023-06-16T09:57:12.182112","EPHEMERIS_TYPE":"0","CLASSIFICATION_TYPE":"U","COUNTRY_CODE":"US","RA_OF_ASC_NODE":"220.9387","OBJECT_ID":"2022-101AC","OBJECT_NAME":"STARLINK-4501","TIME_SYSTEM":"UTC","REV_AT_EPOCH":"4641","ARG_OF_PERICENTER":"81.2185","TLE_LINE2":"2 53553  53.2158 220.9387 0000869  81.2185 278.8905 15.08849720 46414","MEAN_MOTION_DOT":"0.00001639","APOAPSIS":"540.317","LAUNCH_DATE":"2022-08-19","ECCENTRICITY":"0.00008690","MEAN_ELEMENT_THEORY":"SGP4","PERIAPSIS":"539.115","MEAN_ANOMALY":"278.8905","FILE":"3934686","RCS_SIZE":"LARGE","NORAD_CAT_ID":"53553","REF_FRAME":"TEME","GP_ID":"234062560"},{"GP_ID":"234062806","REF_FRAME":"TEME","RCS_SIZE":"LARGE","FILE":"3934686","NORAD_CAT_ID":"53554","ECCENTRICITY":"0.00009770","MEAN_ANOMALY":"276.2197","PERIAPSIS":"539.043","MEAN_ELEMENT_THEORY":"SGP4","LAUNCH_DATE":"2022-08-19","APOAPSIS":"540.395","MEAN_MOTION_DOT":"0.00001269","TLE_LINE2":"2 53554  53.2152 221.0645 0000977  83.8907 276.2197 15.08848714 45751","REV_AT_EPOCH":"4575","ARG_OF_PERICENTER":"83.8907","OBJECT_NAME":"STARLINK-4506","TIME_SYSTEM":"UTC","OBJECT_ID":"2022-101AD","RA_OF_ASC_NODE":"221.0645","COUNTRY_CODE":"US","CLASSIFICATION_TYPE":"U","EPHEMERIS_TYPE":"0","EPOCH":"2023-06-16T09:58:36.174144","MEAN_MOTION":"15.08848714","INCLINATION":"53.2152","OBJECT_TYPE":"PAYLOAD","PERIOD":"95.437","BSTAR":"0.00009778600000","SEMIMAJOR_AXIS":"6917.854","TLE_LINE1":"1 53554U 22101AD  23167.41569646  .00001269  00000-0  97786-4 0  9997","SITE":"AFETR","MEAN_MOTION_DDOT":"0.0000000000000","ELEMENT_SET_NO":"999","CENTER_NAME":"EARTH","DECAY_DATE":null}];
